#aV2024  2 11  0  0  0.00000000     288 DD+AD WGS84 FIT  NGA
## 2301      0.00000000   300.00000000 60351 0.0000000000000
+   32     1  2  3  4  5  6  7  8  9 10 11 12 13 14 15 16 17
+         18 19 20 21 22 23 24 25 26 27 28 29 30 31 32  0  0
+          0  0  0  0  0  0  0  0  0  0  0  0  0  0  0  0  0
+          0  0  0  0  0  0  0  0  0  0  0  0  0  0  0  0  0
+          0  0  0  0  0  0  0  0  0  0  0  0  0  0  0  0  0
++         2  2  2  2  2  2  2  2  2  2  2  2  2  2  2  2  2
++         2  2  2  2  2  2  2  2  2  2  2  2  2  2  2  0  0
++         0  0  0  0  0  0  0  0  0  0  0  0  0  0  0  0  0
++         0  0  0  0  0  0  0  0  0  0  0  0  0  0  0  0  0
++         0  0  0  0  0  0  0  0  0  0  0  0  0  0  0  0  0
%c cc cc ccc ccc cccc cccc cccc cccc ccccc ccccc ccccc ccccc
%c cc cc ccc ccc cccc cccc cccc cccc ccccc ccccc ccccc ccccc
%f  0.0000000  0.000000000  0.00000000000  0.000000000000000
%f  0.0000000  0.000000000  0.00000000000  0.000000000000000
%i    0    0    0    0      0      0      0      0         0
%i    0    0    0    0      0      0      0      0         0
/*      NGA, ST. LOUIS,MO.                                  
/*   EPHEMERIS COMPUTED FROM 2 DAYS OF DATA                 
/*   EPOCHA v9 SMOOTHER                                     
/*   G2296 IERS2010 SATIGS SATAPC                           
*  2024  2 11  6 30  0.00000000
P  1 -11342.336490  22834.938040  -7143.098705    169.097688                    
V  1  -6787.848592   5739.621211  30894.792731      0.014653                    
P  2 -15045.317022  21622.420364   2545.019593   -487.232920                    
V  2  -1009.853450  -3700.661983  31858.989901      0.058543                    
P  3 -12207.193799  12300.661244 -20236.062209    185.744456                    
V  3 -25124.206584  -3517.005728  13223.548612      0.244699                    
P  4  -4791.989591  19659.584671 -17116.713834    288.827613                    
V  4  -9865.197163 -19528.299727 -19782.524133      0.094325                    
P  5  22776.422841  -6842.876175  11744.949588   -161.372917                    
V  5  14999.414498   2940.328811 -26889.657591     -0.014675                    
P  6  13953.446290   5322.690191 -21903.634908    411.575455                    
V  6 -16396.509874  22559.868436  -4842.633747     -0.146833                    
P  7   -309.898955  20813.748029  16707.374128    -59.189084                    
V  7 -13781.078599  15360.405694 -20452.210081     -0.091153                    
P  8 -10583.973237  12127.347569  20959.085092   -166.454179                    
V  8 -12652.980282 -23798.971699   7768.459308     -0.018582                    
P  9   6389.206907  24797.191569  -7020.476761     88.318417                    
V  9  -6318.056587  -6760.449062 -30033.238295      0.126281                    
P 10 -20641.898397 -10924.156878  13157.517120     -0.305757                    
V 10  16272.302365    207.258883  25795.741488      0.036577                    
P 11  19602.660362  -5897.635655 -16872.915402   -571.862653                    
V 11 -12039.331822  17868.648520 -20248.113567     -0.129820                    
P 12  13447.861359 -11754.659481 -19923.760470   -476.845389                    
V 12  24139.136224   5307.650041  13421.411563     -0.037533                    
P 13  14872.857509  -1998.442115  21723.852733    624.462275                    
V 13   7681.297470  26950.569817  -2538.986771      0.035276                    
P 14  17240.380229  13350.078188  15315.528448    322.698082                    
V 14 -19493.157003   -300.021408  22049.591478      0.100056                    
P 15   9256.570179 -13472.040384  20411.243258    126.509889                    
V 15  15578.331400  22294.059665   7677.170461      0.039217                    
P 16 -25903.987869   -312.369238   6530.701619   -365.170997                    
V 16  -8033.590564  -3907.700439 -30044.485651      0.082343                    
P 17  12639.729791  22448.800845  -5694.222780    717.354111                    
V 17    311.783958   8222.160732  30965.254067     -0.011713                    
P 18    297.034306 -20037.145543  17350.638359   -553.011262                    
V 18  14466.100434 -16704.361541 -19732.874197     -0.084563                    
P 19  15746.937922  16145.761994 -14498.493750    439.062270                    
V 19   4052.385013  17536.730739  23893.018865      0.052769                    
P 20  26417.763197  -1049.391473  -1245.880445    387.939458                    
V 20  -1422.637175   3354.419277 -31611.666336     -0.014344                    
P 21 -17061.419556  18325.399697   7659.833024    135.345578                    
V 21   1908.785937  -9733.027529  30349.772828     -0.013548                    
P 22  22215.723017  11055.101908   9480.716076     33.127103                    
V 22 -11819.838675    405.242996  28799.656195     -0.062595                    
P 23  -8967.721141 -14484.930103  20449.916564    153.749129                    
V 23  25803.688907   1116.254980  11935.213086      0.079921                    
P 24  15263.820108 -21130.348779   3350.163106   -429.799399                    
V 24   1026.968480   6186.716453  31028.144162     -0.063477                    
P 25    939.424059 -15572.396087 -21836.642977    488.228039                    
V 25  26857.178335   2378.690618   -280.287442      0.011666                    
P 26 -26050.234559  -4112.877628  -4664.438563    191.429222                    
V 26   5786.973644  -3184.473230 -30111.870849     -0.039689                    
P 27 -16463.707340  -1631.945468  20596.376710     -3.004930                    
V 27 -10451.993662 -24546.968740  -9742.454616     -0.033959                    
P 28 -12795.936124  -8222.781497 -21793.825182   -127.221767                    
V 28  15368.785414 -22951.178036   -369.560719     -0.125775                    
P 29  -3023.900072 -25012.292014  -8292.873543   -607.194734                    
V 29   5736.569228   9068.114611 -29714.420856      0.006640                    
P 30   9003.367134  13825.095777  20899.746458   -434.077749                    
V 30 -16244.773011  20818.930442  -7084.171440      0.049090                    
P 31 -18319.601535   1294.695988 -19536.046734   -227.727204                    
V 31  13739.580867 -20011.498348 -13967.110396     -0.001389                    
P 32 -15675.831170 -19699.834967  -8587.243043   -610.979971                    
V 32  -2431.211229 -11123.879361  29071.670306     -0.021418                    
EOF
